0 IRIDIUM 116
1 43072U 17083C   24013.43387612  .00000477  00000-0  16339-3 0  9992
2 43072  86.3984 332.1989 0002187  89.1918 270.9528 14.34216597317214
0 IRIDIUM 130
1 43073U 17083D   24012.91378549  .00000512  00000-0  17575-3 0  9997
2 43073  86.3993 332.6053 0002140  81.6312 278.5126 14.34219442317081
0 IRIDIUM 151
1 43074U 17083E   24012.95818077  .00000519  00000-0  17808-3 0  9993
2 43074  86.3986 332.4351 0002417  89.6577 270.4896 14.34221013317117
0 IRIDIUM 134
1 43075U 17083F   24012.92647079  .00000506  00000-0  17354-3 0  9995
2 43075  86.3988 332.4443 0002109  81.6577 278.4858 14.34219780317071
0 IRIDIUM 137
1 43076U 17083G   24013.42753348  .00000073  00000-0  19126-4 0  9998
2 43076  86.3988 332.3096 0002040  93.3233 266.8196 14.34217160317210
0 IRIDIUM 141
1 43077U 17083H   24012.93281249  .00000084  00000-0  23067-4 0  9991
2 43077  86.3984 332.3968 0002258  84.9381 275.2072 14.34218420317145
0 IRIDIUM 153
1 43078U 17083J   24012.88499196  .00000049  00000-0  10327-4 0  9994
2 43078  86.3979 300.8705 0002524  84.2946 275.8538 14.34218092318245
0 IRIDIUM 131
1 43079U 17083K   24013.40850974  .00000536  00000-0  18448-3 0  9991
2 43079  86.3989 332.3271 0002626  84.2647 275.8848 14.34213810317141
